CUBEBUG-2 (LO-74)       
1 39440U 13066AA  26068.83168078  .00006310  00000+0  59321-3 0  9991
2 39440  97.8812  17.5050 0058705 358.4894   1.6138 14.92958446662163
STARLINK-34608          
1 64810U 25150W   26068.58274847  .00002720  00000+0  23570-3 0  9999
2 64810  70.0020 134.6149 0003269 266.7801  93.2984 14.98326574 36506
